{
  "type": "FeatureCollection",
  "features": [
    {
      "type": "Feature",
      "properties": {
        "norad_id": 37781,
        "name": "HAIYANG-2A",
        "group": "resource",
        "lat": 57.58638906749603,
        "lon": 178.75282072392915,
        "alt_km": 961.3742273165562,
        "timestamp": "2025-12-08T17:43:04.550802+00:00",
        "meta_object_name": "HAIYANG-2A",
        "meta_object_id": "2011-043A",
        "meta_epoch": "2025-12-08T06:41:00.690144",
        "meta_mean_motion": 13.78834721,
        "meta_eccentricity": 0.00016657,
        "meta_inclination": 99.3378,
        "meta_ra_of_asc_node": 343.2818,
        "meta_arg_of_pericenter": 90.3352,
        "meta_mean_anomaly": 269.799,
        "meta_ephemeris_type": 0,
        "meta_classification_type": "U",
        "meta_norad_cat_id": 37781,
        "meta_element_set_no": 999,
        "meta_rev_at_epoch": 72037,
        "meta_bstar": 4.5016088e-05,
        "meta_mean_motion_dot": 2e-08,
        "meta_mean_motion_ddot": 0,
        "tle_line1": "1 37781U 11043A   25342.27848021  .00000002  00000+0  45016-4 0  9994",
        "tle_line2": "2 37781  99.3378 343.2818 0001665  90.3352 269.7990 13.78834721720371"
      },
      "geometry": {
        "type": "Point",
        "coordinates": [
          178.75282072392915,
          57.58638906749603
        ]
      }
    },
    {
      "type": "Feature",
      "properties": {
        "norad_id": 37791,
        "name": "RASAT",
        "group": "resource",
        "lat": 36.14008108143792,
        "lon": 66.1115329306538,
        "alt_km": 653.5043068014875,
        "timestamp": "2025-12-08T17:43:04.550813+00:00",
        "meta_object_name": "RASAT",
        "meta_object_id": "2011-044D",
        "meta_epoch": "2025-12-08T06:11:49.526304",
        "meta_mean_motion": 14.67900599,
        "meta_eccentricity": 0.00219196,
        "meta_inclination": 98.0655,
        "meta_ra_of_asc_node": 71.5826,
        "meta_arg_of_pericenter": 78.6006,
        "meta_mean_anomaly": 303.0157,
        "meta_ephemeris_type": 0,
        "meta_classification_type": "U",
        "meta_norad_cat_id": 37791,
        "meta_element_set_no": 999,
        "meta_rev_at_epoch": 76517,
        "meta_bstar": 0.00023090736,
        "meta_mean_motion_dot": 1.276e-05,
        "meta_mean_motion_ddot": 0,
        "tle_line1": "1 37791U 11044D   25342.25821211  .00001276  00000+0  23091-3 0  9998",
        "tle_line2": "2 37791  98.0655  71.5826 0021919  78.6006 303.0157 14.67900599765175"
      },
      "geometry": {
        "type": "Point",
        "coordinates": [
          66.1115329306538,
          36.14008108143792
        ]
      }
    },
    {
      "type": "Feature",
      "properties": {
        "norad_id": 37841,
        "name": "SRMSAT",
        "group": "resource",
        "lat": -11.863611281765376,
        "lon": -12.48461155993082,
        "alt_km": 848.0776526295167,
        "timestamp": "2025-12-08T17:43:04.550830+00:00",
        "meta_object_name": "SRMSAT",
        "meta_object_id": "2011-058D",
        "meta_epoch": "2025-12-08T03:51:52.248096",
        "meta_mean_motion": 14.11508975,
        "meta_eccentricity": 0.00117025,
        "meta_inclination": 19.97,
        "meta_ra_of_asc_node": 135.6633,
        "meta_arg_of_pericenter": 262.6363,
        "meta_mean_anomaly": 254.9906,
        "meta_ephemeris_type": 0,
        "meta_classification_type": "U",
        "meta_norad_cat_id": 37841,
        "meta_element_set_no": 999,
        "meta_rev_at_epoch": 73079,
        "meta_bstar": 0.00013286554,
        "meta_mean_motion_dot": 5.1e-06,
        "meta_mean_motion_ddot": 0,
        "tle_line1": "1 37841U 11058D   25342.16102139  .00000510  00000+0  13287-3 0  9996",
        "tle_line2": "2 37841  19.9700 135.6633 0011702 262.6363 254.9906 14.11508975730799"
      },
      "geometry": {
        "type": "Point",
        "coordinates": [
          -12.48461155993082,
          -11.863611281765376
        ]
      }
    },
    {
      "type": "Feature",
      "properties": {
        "norad_id": 38012,
        "name": "PLEIADES 1A",
        "group": "resource",
        "lat": -33.362766357789056,
        "lon": 61.00523169913178,
        "alt_km": 704.3302291673053,
        "timestamp": "2025-12-08T17:43:04.550841+00:00",
        "meta_object_name": "PLEIADES 1A",
        "meta_object_id": "2011-076F",
        "meta_epoch": "2025-12-08T06:32:02.471712",
        "meta_mean_motion": 14.5855541,
        "meta_eccentricity": 0.0001322,
        "meta_inclination": 98.183,
        "meta_ra_of_asc_node": 55.1097,
        "meta_arg_of_pericenter": 78.5417,
        "meta_mean_anomaly": 322.4223,
        "meta_ephemeris_type": 0,
        "meta_classification_type": "U",
        "meta_norad_cat_id": 38012,
        "meta_element_set_no": 999,
        "meta_rev_at_epoch": 74416,
        "meta_bstar": 0.00019461229,
        "meta_mean_motion_dot": 8.59e-06,
        "meta_mean_motion_ddot": 0,
        "tle_line1": "1 38012U 11076F   25342.27225083  .00000859  00000+0  19461-3 0  9999",
        "tle_line2": "2 38012  98.1830  55.1097 0001322  78.5417 322.4223 14.58555410744160"
      },
      "geometry": {
        "type": "Point",
        "coordinates": [
          61.00523169913178,
          -33.362766357789056
        ]
      }
    },
    {
      "type": "Feature",
      "properties": {
        "norad_id": 38038,
        "name": "ZIYUAN 1-02C (ZY 1-02C)",
        "group": "resource",
        "lat": 10.048308079540956,
        "lon": -129.66778901546587,
        "alt_km": 761.9382972788835,
        "timestamp": "2025-12-08T17:43:04.550853+00:00",
        "meta_object_name": "ZIYUAN 1-02C (ZY 1-02C)",
        "meta_object_id": "2011-079A",
        "meta_epoch": "2025-12-08T07:16:39.260352",
        "meta_mean_motion": 14.38005118,
        "meta_eccentricity": 0.00070158,
        "meta_inclination": 98.4341,
        "meta_ra_of_asc_node": 48.3987,
        "meta_arg_of_pericenter": 150.8447,
        "meta_mean_anomaly": 288.16,
        "meta_ephemeris_type": 0,
        "meta_classification_type": "U",
        "meta_norad_cat_id": 38038,
        "meta_element_set_no": 999,
        "meta_rev_at_epoch": 73177,
        "meta_bstar": 0.00034408412,
        "meta_mean_motion_dot": 9.98e-06,
        "meta_mean_motion_ddot": 0,
        "tle_line1": "1 38038U 11079A   25342.30323218  .00000998  00000+0  34408-3 0  9995",
        "tle_line2": "2 38038  98.4341  48.3987 0007015 150.8447 288.1600 14.38005118731775"
      },
      "geometry": {
        "type": "Point",
        "coordinates": [
          -129.66778901546587,
          10.048308079540956
        ]
      }
    },
    {
      "type": "Feature",
      "properties": {
        "norad_id": 38046,
        "name": "ZIYUAN 3-1 (ZY 3-1)",
        "group": "resource",
        "lat": -71.7865494823512,
        "lon": -153.4492210510215,
        "alt_km": 373.1177941000942,
        "timestamp": "2025-12-08T17:43:04.550864+00:00",
        "meta_object_name": "ZIYUAN 3-1 (ZY 3-1)",
        "meta_object_id": "2012-001A",
        "meta_epoch": "2025-12-08T07:26:59.518176",
        "meta_mean_motion": 15.67728474,
        "meta_eccentricity": 0.00019363,
        "meta_inclination": 97.1758,
        "meta_ra_of_asc_node": 48.627,
        "meta_arg_of_pericenter": 11.6453,
        "meta_mean_anomaly": 348.4853,
        "meta_ephemeris_type": 0,
        "meta_classification_type": "U",
        "meta_norad_cat_id": 38046,
        "meta_element_set_no": 999,
        "meta_rev_at_epoch": 77427,
        "meta_bstar": 0.00073374849,
        "meta_mean_motion_dot": 0.00080758,
        "meta_mean_motion_ddot": 0,
        "tle_line1": "1 38046U 12001A   25342.31041109  .00080758  00000+0  73375-3 0  9995",
        "tle_line2": "2 38046  97.1758  48.6270 0001936  11.6453 348.4853 15.67728474774279"
      },
      "geometry": {
        "type": "Point",
        "coordinates": [
          -153.4492210510215,
          -71.7865494823512
        ]
      }
    },
    {
      "type": "Feature",
      "properties": {
        "norad_id": 38338,
        "name": "ARIRANG-3 (KOMPSAT-3)",
        "group": "resource",
        "lat": 1.4597909823718487,
        "lon": 117.51158126097447,
        "alt_km": 694.4500820168796,
        "timestamp": "2025-12-08T17:43:04.550875+00:00",
        "meta_object_name": "ARIRANG-3 (KOMPSAT-3)",
        "meta_object_id": "2012-025B",
        "meta_epoch": "2025-12-08T07:02:48.824160",
        "meta_mean_motion": 14.61704061,
        "meta_eccentricity": 0.0005677,
        "meta_inclination": 98.3318,
        "meta_ra_of_asc_node": 296.8497,
        "meta_arg_of_pericenter": 353.2279,
        "meta_mean_anomaly": 6.8844,
        "meta_ephemeris_type": 0,
        "meta_classification_type": "U",
        "meta_norad_cat_id": 38338,
        "meta_element_set_no": 999,
        "meta_rev_at_epoch": 72345,
        "meta_bstar": 0.00025035128,
        "meta_mean_motion_dot": 1.199e-05,
        "meta_mean_motion_ddot": 0,
        "tle_line1": "1 38338U 12025B   25342.29362065  .00001199  00000+0  25035-3 0  9991",
        "tle_line2": "2 38338  98.3318 296.8497 0005677 353.2279   6.8844 14.61704061723451"
      },
      "geometry": {
        "type": "Point",
        "coordinates": [
          117.51158126097447,
          1.4597909823718487
        ]
      }
    }
  ]
}